#aV2010 10 17  0  0   .00000000      96 DD+AD WGS84 FIT  NGA
## 1606       .00000000   900.00000000 55486  .0000000000000
+   32     1  2  3  4  5  6  7  8  9 10 11 12 13 14 15 16 17
+         18 19 20 21 22 23 24 25 26 27 28 29 30 31 32  0  0
+          0  0  0  0  0  0  0  0  0  0  0  0  0  0  0  0  0
+          0  0  0  0  0  0  0  0  0  0  0  0  0  0  0  0  0
+          0  0  0  0  0  0  0  0  0  0  0  0  0  0  0  0  0
++         0  0  0  0  0  0  0  0  0  0  0  0  0  0  0  0  0
++         0  0  0  0  0  0  0  0  0  0  0  0  0  0  0  0  0
++         0  0  0  0  0  0  0  0  0  0  0  0  0  0  0  0  0
++         0  0  0  0  0  0  0  0  0  0  0  0  0  0  0  0  0
++         0  0  0  0  0  0  0  0  0  0  0  0  0  0  0  0  0
%c cc cc ccc ccc cccc cccc cccc cccc ccccc ccccc ccccc ccccc
%c cc cc ccc ccc cccc cccc cccc cccc ccccc ccccc ccccc ccccc
%f  0.0000000  0.000000000  0.00000000000  0.000000000000000
%f  0.0000000  0.000000000  0.00000000000  0.000000000000000
%i    0    0    0    0      0      0      0      0         0
%i    0    0    0    0      0      0      0      0         0
/*      NGA, ST. LOUIS,MO.                                  
/*   EPHEMERIS COMPUTED FROM  3 DAYS OF DATA                
/* CCCCCCCCCCCCCCCCCCCCCCCCCCCCCCCCCCCCCCCCCCCCCCCCCCCCCCCCC
/* CCCCCCCCCCCCCCCCCCCCCCCCCCCCCCCCCCCCCCCCCCCCCCCCCCCCCCCCC
*  2010 10 17 21  0   .00000000                                                 
P  1  -4793.369879  25942.425246   2303.187705   -173.337377                    
V  1  -2355.700753  -3389.892594  31776.419405      -.037359                    
P  2  -7686.642498 -20058.139568  15914.541216    296.182185                    
V  2  17401.324542  10232.935498  20834.023914       .026351                    
P  3   3588.486930  16183.123225 -21103.758756    622.966403                    
V  3 -23030.820509  12264.490255   5928.788109       .051507                    
P  4   5012.552307 -15355.219641  20845.085897    196.444763                    
V  4  22065.899756  15662.627110   6530.531353       .094724                    
P  5  -3841.363813 -24401.896647  -9640.352973    -53.023036                    
V  5   4200.879334 -11840.578816  28416.079003      -.059611                    
P  6  -2609.043469  17397.301291 -19686.962511    452.265712                    
V  6 -23615.359113   9735.514107  11812.030959      -.137511                    
P  7  20609.822462   1393.817280 -16810.868938     -1.323897                    
V  7  15966.219654  14070.776674  20548.876552       .002598                    
P  8  12836.997210  -7709.762645 -21991.041230      6.869855                    
V  8  20751.677656  18457.970871   5108.843111      -.000114                    
P  9 -21320.258246 -15850.530717   -591.244072     36.978199                    
V  9   1314.683164  -1670.117199 -32206.074622       .022657                    
P 10   6618.751533 -25175.746492   3989.098850    -55.440842                    
V 10   2567.039584   5800.770085  31234.515077      -.010209                    
P 11  25081.248551   9000.640424   2056.034601    -97.231900                    
V 11    836.901756   5519.177318 -29705.464749      -.027234                    
P 12 -12231.780705 -12236.398260  20227.066411    -62.539710                    
V 12   4374.085987 -25171.956677 -12455.960224       .035986                    
P 13  25556.847703  -4920.721116   5298.370411    294.624954                    
V 13  -5952.236057   3854.576836  31455.232614      -.010287                    
P 14 -18088.684329  15148.078577  12209.393764     98.917557                    
V 14 -14966.023736   3516.536514 -27016.587579       .035150                    
P 15 -15355.724352  -8692.127051 -19873.378792   -194.672155                    
V 15  22650.371114 -11252.294876 -12434.068751       .048734                    
P 16  -1043.681595  26016.760330  -4396.490450   -118.171215                    
V 16  -3451.048273   5185.071688  31559.170231      -.033201                    
P 17  19773.291998 -14849.954920   9496.458897    174.512573                    
V 17  12137.672408  -1841.657083 -28691.330793       .012366                    
P 18 -15564.083263   9065.460411 -19105.825894     99.411754                    
V 18   1835.106379 -25096.414626 -13573.003609       .021969                    
P 19  14445.971056  10039.801060 -19981.414160    -75.118399                    
V 19 -23736.104321   8843.256474 -12393.849413      -.032647                    
P 20  13856.336837  10414.508337  20006.505955     50.187293                    
V 20  -3585.682549  25556.536994 -10685.809730      -.002879                    
P 21 -20026.068204    747.340803 -17361.083325    -95.846055                    
V 21 -16714.421362 -15354.784537  17621.813261      -.026967                    
P 22 -11814.853179  20609.509038 -11610.863729    160.723824                    
V 22   -915.947368 -15411.217399 -26129.995179      -.010032                    
P 23  22166.769817   1939.465324  14746.292439    348.407545                    
V 23 -16551.412494   8636.099124  23406.100241      -.019674                    
P 24  14915.006776  20471.412115  -8393.529926    330.945775                    
V 24  -9920.823404  -4806.051445 -28867.243050       .031372                    
P 25 -15350.050591   1470.859800  21606.022601    -46.244145                    
V 25   2699.840429 -27351.105197   3763.213810      -.020733                    
P 26  -4253.516184 -14229.614348 -22578.557833    -31.788729                    
V 26  25847.249025  -8556.784361    947.057031      -.075992                    
P 27 -19440.035898 -17350.984145  -5018.484947    199.111587                    
V 27   7111.148270   2336.354768 -31188.708249       .035803                    
P 28  12679.183512 -18104.921987 -14025.144856       .747295                    
V 28   -836.837627  18854.807273 -24538.072240       .015621                    
P 29 -25236.372018   4329.933205   7060.615235    156.907111                    
V 29   7334.074408  -5670.256584  30063.395617       .027318                    
P 30 -14868.553527   7871.814645  20146.542617    288.177145                    
V 30   1080.701429 -26520.738625  10941.766227       .036008                    
P 31  -1548.552452  16537.638734  20892.231517       .096338                    
V 31 -21144.861869 -15230.126772  10767.218282       .033992                    
P 32   9214.856575  17664.461421  18066.736692   -110.722434                    
V 32  -5989.047510  21384.130963 -17815.377023      -.087918                    
EOF
